start=new Date('2023-03-08T00:00:00.000Z').valueOf();
sats=[{"DECAY_DATE":null,"SEMIMAJOR_AXIS":"6821.847","INCLINATION":"43.0006","SITE":"AFETR","MEAN_MOTION":"15.40812456","TIME_SYSTEM":"UTC","EPOCH":"2023-03-07T22:00:00.999936","LAUNCH_DATE":"2023-01-26","OBJECT_TYPE":"PAYLOAD","RA_OF_ASC_NODE":"160.6946","BSTAR":"-0.03279500000000","COUNTRY_CODE":"US","PERIAPSIS":"442.850","TLE_LINE2":"2 55372  43.0006 160.6946 0001264 277.5405 233.9901 15.40812456  1309","CLASSIFICATION_TYPE":"U","MEAN_ANOMALY":"233.9901","REF_FRAME":"TEME","MEAN_MOTION_DOT":"-0.01245131","ARG_OF_PERICENTER":"277.5405","MEAN_ELEMENT_THEORY":"SGP4","RCS_SIZE":"LARGE","EPHEMERIS_TYPE":"0","OBJECT_NAME":"STARLINK-5568","TLE_LINE1":"1 55372U 23013AT  23066.91667824 -.01245131  00000-0 -32795-1 0  9997","ECCENTRICITY":"0.00012640","OBJECT_ID":"2023-013AT","PERIOD":"93.457","NORAD_CAT_ID":"55372","REV_AT_EPOCH":"130","CENTER_NAME":"EARTH","MEAN_MOTION_DDOT":"0.0000000000000","APOAPSIS":"444.574","FILE":"3854072","GP_ID":"227677801","ELEMENT_SET_NO":"999"},{"MEAN_MOTION":"15.41079931","TIME_SYSTEM":"UTC","OBJECT_TYPE":"PAYLOAD","RA_OF_ASC_NODE":"160.6774","LAUNCH_DATE":"2023-01-26","EPOCH":"2023-03-07T22:00:00.999936","TLE_LINE2":"2 55373  43.0009 160.6774 0001269 274.7738 243.6008 15.41079931  1305","COUNTRY_CODE":"US","BSTAR":"-0.03246800000000","PERIAPSIS":"442.057","REF_FRAME":"TEME","CLASSIFICATION_TYPE":"U","MEAN_ANOMALY":"243.6008","DECAY_DATE":null,"INCLINATION":"43.0009","SEMIMAJOR_AXIS":"6821.058","SITE":"AFETR","CENTER_NAME":"EARTH","MEAN_MOTION_DDOT":"0.0000000000000","REV_AT_EPOCH":"130","GP_ID":"227677066","APOAPSIS":"443.788","FILE":"3854072","ELEMENT_SET_NO":"999","ARG_OF_PERICENTER":"274.7738","MEAN_MOTION_DOT":"-0.01243940","RCS_SIZE":"LARGE","EPHEMERIS_TYPE":"0","MEAN_ELEMENT_THEORY":"SGP4","TLE_LINE1":"1 55373U 23013AU  23066.91667824 -.01243940  00000-0 -32468-1 0  9991","OBJECT_NAME":"STARLINK-5581","ECCENTRICITY":"0.00012690","NORAD_CAT_ID":"55373","OBJECT_ID":"2023-013AU","PERIOD":"93.441"},{"CENTER_NAME":"EARTH","MEAN_MOTION_DDOT":"0.0000000000000","REV_AT_EPOCH":"130","ELEMENT_SET_NO":"999","GP_ID":"227677315","APOAPSIS":"444.278","FILE":"3854072","RCS_SIZE":"LARGE","EPHEMERIS_TYPE":"0","MEAN_ELEMENT_THEORY":"SGP4","ARG_OF_PERICENTER":"279.1440","MEAN_MOTION_DOT":"-0.01244118","NORAD_CAT_ID":"55374","PERIOD":"93.451","OBJECT_ID":"2023-013AV","OBJECT_NAME":"STARLINK-5578","TLE_LINE1":"1 55374U 23013AV  23066.91667824 -.01244118  00000-0 -32651-1 0  9994","ECCENTRICITY":"0.00012810","OBJECT_TYPE":"PAYLOAD","RA_OF_ASC_NODE":"160.6887","LAUNCH_DATE":"2023-01-26","EPOCH":"2023-03-07T22:00:00.999936","MEAN_MOTION":"15.40916926","TIME_SYSTEM":"UTC","REF_FRAME":"TEME","CLASSIFICATION_TYPE":"U","MEAN_ANOMALY":"234.8534","TLE_LINE2":"2 55374  43.0005 160.6887 0001281 279.1440 234.8534 15.40916926  1309","BSTAR":"-0.03265100000000","COUNTRY_CODE":"US","PERIAPSIS":"442.530","DECAY_DATE":null,"SITE":"AFETR","INCLINATION":"43.0005","SEMIMAJOR_AXIS":"6821.539"},{"DECAY_DATE":null,"SITE":"AFETR","INCLINATION":"43.0008","SEMIMAJOR_AXIS":"6819.499","OBJECT_TYPE":"PAYLOAD","RA_OF_ASC_NODE":"160.6571","EPOCH":"2023-03-07T22:00:00.999936","LAUNCH_DATE":"2023-01-26","MEAN_MOTION":"15.41608263","TIME_SYSTEM":"UTC","REF_FRAME":"TEME","CLASSIFICATION_TYPE":"U","MEAN_ANOMALY":"252.2171","TLE_LINE2":"2 55375  43.0008 160.6571 0001513 274.3860 252.2171 15.41608263  1308","COUNTRY_CODE":"US","BSTAR":"-0.03187700000000","PERIAPSIS":"440.332","RCS_SIZE":"LARGE","EPHEMERIS_TYPE":"0","MEAN_ELEMENT_THEORY":"SGP4","ARG_OF_PERICENTER":"274.3860","MEAN_MOTION_DOT":"-0.01243318","NORAD_CAT_ID":"55375","PERIOD":"93.409","OBJECT_ID":"2023-013AW","TLE_LINE1":"1 55375U 23013AW  23066.91667824 -.01243318  00000-0 -31877-1 0  9995","OBJECT_NAME":"STARLINK-5588","ECCENTRICITY":"0.00015130","MEAN_MOTION_DDOT":"0.0000000000000","CENTER_NAME":"EARTH","REV_AT_EPOCH":"130","ELEMENT_SET_NO":"999","GP_ID":"227677563","APOAPSIS":"442.396","FILE":"3854072"},{"APOAPSIS":"356.285","FILE":"3854072","GP_ID":"227678301","ELEMENT_SET_NO":"999","REV_AT_EPOCH":"637","MEAN_MOTION_DDOT":"0.0000000000000","CENTER_NAME":"EARTH","ECCENTRICITY":"0.00019080","OBJECT_NAME":"STARLINK-5586","TLE_LINE1":"1 55376U 23013AX  23066.61713004  .00001476  00000-0  14696-4 0  9992","OBJECT_ID":"2023-013AX","PERIOD":"91.640","NORAD_CAT_ID":"55376","MEAN_MOTION_DOT":"0.00001476","ARG_OF_PERICENTER":"261.4678","MEAN_ELEMENT_THEORY":"SGP4","EPHEMERIS_TYPE":"0","RCS_SIZE":"LARGE","PERIAPSIS":"353.716","BSTAR":"0.00001469600000","COUNTRY_CODE":"US","TLE_LINE2":"2 55376  43.0025 160.4712 0001908 261.4678  98.5973 15.71363685  6377","MEAN_ANOMALY":"98.5973","CLASSIFICATION_TYPE":"U","REF_FRAME":"TEME","MEAN_MOTION":"15.71363685","TIME_SYSTEM":"UTC","LAUNCH_DATE":"2023-01-26","EPOCH":"2023-03-07T14:48:40.035456","RA_OF_ASC_NODE":"160.4712","OBJECT_TYPE":"PAYLOAD","SEMIMAJOR_AXIS":"6733.136","INCLINATION":"43.0025","SITE":"AFETR","DECAY_DATE":null},{"BSTAR":"-0.03097800000000","COUNTRY_CODE":"US","PERIAPSIS":"436.826","TLE_LINE2":"2 55377  43.0007 160.6135 0001347 273.3420 271.1475 15.42836712  1301","CLASSIFICATION_TYPE":"U","MEAN_ANOMALY":"271.1475","REF_FRAME":"TEME","MEAN_MOTION":"15.42836712","TIME_SYSTEM":"UTC","EPOCH":"2023-03-07T22:00:00.999936","LAUNCH_DATE":"2023-01-26","OBJECT_TYPE":"PAYLOAD","RA_OF_ASC_NODE":"160.6135","SEMIMAJOR_AXIS":"6815.879","INCLINATION":"43.0007","SITE":"AFETR","DECAY_DATE":null,"APOAPSIS":"438.662","FILE":"3854072","GP_ID":"227676567","ELEMENT_SET_NO":"999","REV_AT_EPOCH":"130","MEAN_MOTION_DDOT":"0.0000000000000","CENTER_NAME":"EARTH","TLE_LINE1":"1 55377U 23013AY  23066.91667824 -.01257934  00000-0 -30978-1 0  9997","OBJECT_NAME":"STARLINK-5567","ECCENTRICITY":"0.00013470","PERIOD":"93.335","OBJECT_ID":"2023-013AY","NORAD_CAT_ID":"55377","MEAN_MOTION_DOT":"-0.01257934","ARG_OF_PERICENTER":"273.3420","MEAN_ELEMENT_THEORY":"SGP4","RCS_SIZE":"LARGE","EPHEMERIS_TYPE":"0"},{"MEAN_MOTION_DOT":"-0.01256820","ARG_OF_PERICENTER":"277.8223","MEAN_ELEMENT_THEORY":"SGP4","RCS_SIZE":"LARGE","EPHEMERIS_TYPE":"0","TLE_LINE1":"1 55378U 23013AZ  23066.91667824 -.01256820  00000-0 -32632-1 0  9990","OBJECT_NAME":"STARLINK-5572","ECCENTRICITY":"0.00013810","OBJECT_ID":"2023-013AZ","PERIOD":"93.430","NORAD_CAT_ID":"55378","REV_AT_EPOCH":"130","MEAN_MOTION_DDOT":"0.0000000000000","CENTER_NAME":"EARTH","FILE":"3854072","APOAPSIS":"443.312","GP_ID":"227676816","ELEMENT_SET_NO":"999","DECAY_DATE":null,"SEMIMAJOR_AXIS":"6820.505","INCLINATION":"43.0007","SITE":"AFETR","TIME_SYSTEM":"UTC","MEAN_MOTION":"15.41267417","LAUNCH_DATE":"2023-01-26","EPOCH":"2023-03-07T22:00:00.999936","OBJECT_TYPE":"PAYLOAD","RA_OF_ASC_NODE":"160.6695","COUNTRY_CODE":"US","BSTAR":"-0.03263200000000","PERIAPSIS":"441.428","TLE_LINE2":"2 55378  43.0007 160.6695 0001381 277.8223 243.8138 15.41267417  1302","CLASSIFICATION_TYPE":"U","MEAN_ANOMALY":"243.8138","REF_FRAME":"TEME"},{"RCS_SIZE":"LARGE","EPHEMERIS_TYPE":"0","MEAN_ELEMENT_THEORY":"SGP4","ARG_OF_PERICENTER":"272.7643","MEAN_MOTION_DOT":"-0.01256617","NORAD_CAT_ID":"55379","OBJECT_ID":"2023-013BA","PERIOD":"93.359","OBJECT_NAME":"STARLINK-5569","TLE_LINE1":"1 55379U 23013BA  23066.91667824 -.01256617  00000-0 -31374-1 0  9997","ECCENTRICITY":"0.00013360","CENTER_NAME":"EARTH","MEAN_MOTION_DDOT":"0.0000000000000","REV_AT_EPOCH":"130","ELEMENT_SET_NO":"999","GP_ID":"227678063","APOAPSIS":"439.858","FILE":"3854072","DECAY_DATE":null,"SITE":"AFETR","INCLINATION":"43.0007","SEMIMAJOR_AXIS":"6817.083","OBJECT_TYPE":"PAYLOAD","RA_OF_ASC_NODE":"160.6285","LAUNCH_DATE":"2023-01-26","EPOCH":"2023-03-07T22:00:00.999936","TIME_SYSTEM":"UTC","MEAN_MOTION":"15.42428127","REF_FRAME":"TEME","CLASSIFICATION_TYPE":"U","MEAN_ANOMALY":"265.5467","TLE_LINE2":"2 55379  43.0007 160.6285 0001336 272.7643 265.5467 15.42428127  1302","COUNTRY_CODE":"US","BSTAR":"-0.03137400000000","PERIAPSIS":"438.037"},{"MEAN_ELEMENT_THEORY":"SGP4","RCS_SIZE":"LARGE","EPHEMERIS_TYPE":"0","MEAN_MOTION_DOT":"-0.00008690","ARG_OF_PERICENTER":"286.1235","OBJECT_ID":"2023-013BB","PERIOD":"91.642","NORAD_CAT_ID":"55380","TLE_LINE1":"1 55380U 23013BB  23066.68039311 -.00008690  00000-0 -62961-4 0  9991","OBJECT_NAME":"STARLINK-5571","ECCENTRICITY":"0.00011830","REV_AT_EPOCH":"638","MEAN_MOTION_DDOT":"0.0000000000000","CENTER_NAME":"EARTH","ELEMENT_SET_NO":"999","FILE":"3854072","APOAPSIS":"355.889","GP_ID":"227677802","DECAY_DATE":null,"SITE":"AFETR","SEMIMAJOR_AXIS":"6733.227","INCLINATION":"43.0008","EPOCH":"2023-03-07T16:19:45.964704","LAUNCH_DATE":"2023-01-26","OBJECT_TYPE":"PAYLOAD","RA_OF_ASC_NODE":"160.0856","TIME_SYSTEM":"UTC","MEAN_MOTION":"15.71331716","CLASSIFICATION_TYPE":"U","MEAN_ANOMALY":"73.9503","REF_FRAME":"TEME","BSTAR":"-0.00006296100000","COUNTRY_CODE":"US","PERIAPSIS":"354.295","TLE_LINE2":"2 55380  43.0008 160.0856 0001183 286.1235  73.9503 15.71331716  6383"},{"ELEMENT_SET_NO":"999","APOAPSIS":"438.875","FILE":"3854072","GP_ID":"227677067","REV_AT_EPOCH":"130","MEAN_MOTION_DDOT":"0.0000000000000","CENTER_NAME":"EARTH","OBJECT_ID":"2023-013BC","PERIOD":"93.339","NORAD_CAT_ID":"55381","ECCENTRICITY":"0.00013620","TLE_LINE1":"1 55381U 23013BC  23066.91667824 -.01256085  00000-0 -31000-1 0  9995","OBJECT_NAME":"STARLINK-5575","MEAN_ELEMENT_THEORY":"SGP4","EPHEMERIS_TYPE":"0","RCS_SIZE":"LARGE","MEAN_MOTION_DOT":"-0.01256085","ARG_OF_PERICENTER":"277.5349","MEAN_ANOMALY":"265.0961","CLASSIFICATION_TYPE":"U","REF_FRAME":"TEME","PERIAPSIS":"437.018","COUNTRY_CODE":"US","BSTAR":"-0.03100000000000","TLE_LINE2":"2 55381  43.0008 160.6183 0001362 277.5349 265.0961 15.42767879  1302","EPOCH":"2023-03-07T22:00:00.999936","LAUNCH_DATE":"2023-01-26","RA_OF_ASC_NODE":"160.6183","OBJECT_TYPE":"PAYLOAD","MEAN_MOTION":"15.42767879","TIME_SYSTEM":"UTC","SITE":"AFETR","SEMIMAJOR_AXIS":"6816.082","INCLINATION":"43.0008","DECAY_DATE":null}];
